Company Name;Company Website;Street Address;City;State;Primary Contact Name;Houzz Description;Houzz Profile URL;;;
ONarq Studio;www.onarqstudio.com;1322 FM 1463;katy;Texas;+1 786-207-1436;Empresas de reformas;https://www.houzz.es/profesionales/empresas-de-reformas/onarq-studio-pfvwus-pf~155683623;;;
DESIGNER KITCHEN & BATH;www.designerkitchenandbath.com;4003 Bellaire Blvd;Suite H;Houston;+1 281-242-2112;Empresas de instalación y reformas de cocinas y baños;https://www.houzz.es/profesionales/renovacion-de-cocinas-y-banos/designer-kitchen-y-bath-pfvwus-pf~847369414;;;
Poggenpohl Houston;www.houston.poggenpohl.com;5002 Westheimer Road, STE B;Houston;Texas;+1 832-582-2620;Empresas de instalación y reformas de cocinas y baños;https://www.houzz.es/profesionales/disenadores-e-instaladores-de-cocinas-y-banos/poggenpohl-houston-pfvwus-pf~1040255848;;;
YZM CONSTRUCTION;www.yzmconstruction.com;10777 Westheimer Rd;Suite1100;Houston;+1 346-833-9825;Empresas de reformas;https://www.houzz.es/profesionales/empresas-de-reformas/yzm-construction-pfvwus-pf~1547809265;;;
Penberthy Custom Builders;www.penberthycustombuilders.com;29700 White Elk Blvd;Tomball;Texas;+1 832-698-4736;Contratistas;https://www.houzz.es/profesionales/contratistas/penberthy-custom-builders-pfvwus-pf~218441581;;;
Hamre’s Kitchen & Bath Remodeling;www.HamresRemodeling.com;12705 South Kirkwood. Suite 120;Stafford;Texas;+1 281-494-9200;Empresas de instalación y reformas de cocinas y baños;https://www.houzz.es/profesionales/renovacion-de-cocinas-y-banos/hamres-kitchen-y-bath-remodeling-pfvwus-pf~1636435399;;;
Fiesta Construction;www.FiestaConstruction.com;2111 Foundary Dr;Katy;Texas;+1 832-934-8743;Contratistas;https://www.houzz.es/profesionales/contratistas/fiesta-construction-pfvwus-pf~155660891;;;
LBJ Construction, LP;lbjconstruction.com;5438 Guhn Road;Houston;Texas;+1 713-781-0169;Contratistas;https://www.houzz.es/profesionales/contratistas/lbj-construction-lp-pfvwus-pf~754976737;;;
Lone Star Pro Services;www.lonestarproservices.com/;13700 Veterans Memorial Dr.;Ste 251;Houston;+1 713-547-5270;Contratistas;https://www.houzz.es/profesionales/contratistas/lone-star-pro-services-pfvwus-pf~849592342;;;
BwCollier Interior Design, BwC Studio;www.bwcollier.net;5252 Westchester, Suite 220;Houston;Texas;+1 713-348-9735;Interioristas y decoradores;https://www.houzz.es/profesionales/decoradores/bwcollier-interior-design-bwc-studio-pfvwus-pf~880992717;;;
Brickmoon Design;www.brickmoondesign.com;1438 Campbell Rd. Suite 202;Houston;Texas;+1 713-257-9843;Arquitectos;https://www.houzz.es/profesionales/arquitectos-y-disenadores-de-edificios/brickmoon-design-pfvwus-pf~1543508185;;;
Metropolitan Custom Homes;Metropolitancustomhomes.net;950 Echo Lane Suite 100;Houston;Texas;+1 281-493-6345;Albañiles;https://www.houzz.es/profesionales/albaniles/metropolitan-custom-homes-pfvwus-pf~1761619679;;;
Ideo Architects;ideoarchitects.com/;19103 I-45;Spring;Texas;+1 832-981-5904;Arquitectos;https://www.houzz.es/profesionales/arquitectos-y-disenadores-de-edificios/ideo-architects-pfvwus-pf~1703333257;;;
Allan Edwards Builder Inc.;aedwards.com;1973 West Gray Ste 5;Houston;Texas;+1 713-529-4481;Albañiles;https://www.houzz.es/profesionales/albaniles/allan-edwards-builder-inc-pfvwus-pf~1887531883;;;
Chris Lewis Architecture;www.chrislewisarchitecture.com;2317 Steel St.;Houston;Texas;+1 713-252-1060;Arquitectos;https://www.houzz.es/profesionales/arquitectos-y-disenadores-de-edificios/chris-lewis-architecture-pfvwus-pf~1008420853;;;
Cindy Aplanalp & Chairma Design Group;www.chairma.com;16535 Hollister Street, Ste G.;Houston;Texas;+1 832-649-8656;Interioristas y decoradores;https://www.houzz.es/profesionales/decoradores/cindy-aplanalp-y-chairma-design-group-pfvwus-pf~914411052;;;
Masa Studio Architects;masastudio.net;3211 Edloe St., #107;Houston;Texas;+1 713-766-0416;Arquitectos;https://www.houzz.es/profesionales/arquitectos-y-disenadores-de-edificios/masa-studio-architects-pfvwus-pf~1292098053;;;
Blackwell Design, LLC;blackwelldesignllc.net;19 Briar Hollow Ln Ste. 246;Houston;Texas;+1 713-545-0969;Contratistas;https://www.houzz.es/profesionales/contratistas/blackwell-design-llc-pfvwus-pf~1638837231;;;
By Design Interiors, Inc.;www.bydesigninteriors.com;5629 Cypress Creek Parkway Ste. 113;Houston;Texas;+1 281-587-8755;Interioristas y decoradores;https://www.houzz.es/profesionales/decoradores/by-design-interiors-inc-pfvwus-pf~847618990;;;
Cusimano Architect;www.cusimano-architect.com;4511 Nett St;Houston;Texas;+1 832-465-0419;Arquitectos;https://www.houzz.es/profesionales/arquitectos-y-disenadores-de-edificios/cusimano-architect-pfvwus-pf~562222303;;;
Stone Coverings of Houston;www.stonecoveringsofhouston.com;11007 W. Hardy Rd.;Houston;Texas;+1 281-677-4777;Empresas de instalación y reformas de cocinas y baños;https://www.houzz.es/profesionales/renovacion-de-cocinas-y-banos/stone-coverings-of-houston-pfvwus-pf~564307395;;;
Legal Eagle Contractors;www.legaleaglecontractors.com;5008 Locust St.;Bellaire;Texas;+1 713-322-8662;Contratistas;https://www.houzz.es/profesionales/contratistas/legal-eagle-contractors-pfvwus-pf~58789242;;;
GB General Contractors;www.gbgeneralcontrs.com/;400 East Main Street;Tomball;Texas;+1 281-916-5929;Contratistas;https://www.houzz.es/profesionales/contratistas/gb-general-contractors-pfvwus-pf~722185970;;;
Seek Design & Renovation;www.seekremodel.com;22419 Main Blvd;Tomball;Texas;+1 832-326-9032;Empresas de instalación y reformas de cocinas y baños;https://www.houzz.es/profesionales/renovacion-de-cocinas-y-banos/seek-design-y-renovation-pfvwus-pf~1351104123;;;
Jonathon Dahl;www.jonathondahl.com;PO Box 918;Cypress;Texas;+1 281-688-5063;Carpinteros;https://www.houzz.es/profesionales/armarios-de-cocina-y-bano-a-medida/jonathon-dahl-pfvwus-pf~1988221048;;;
Largo Green Inc;www.largogreen.com;5868 westheimer rd #555;Houston;Texas;+1 346-214-5455;Contratistas;https://www.houzz.es/profesionales/contratistas/largo-green-inc-pfvwus-pf~221240457;;;
Houston Floors And Remodeling;houstonfloorinstallationservices.com;1300 W Sam Houston Pkwy S, ste 100#250;Houston;Texas;+1 713-575-2456;Contratistas;https://www.houzz.es/profesionales/contratistas/houston-floors-and-remodeling-pfvwus-pf~1044379908;;;
Unique Builder's & Development Inc.;www.uniquebuilderstexas.com;5320 Gulfton, Suite 9;Houston;Texas;+1 346-616-9168;Contratistas;https://www.houzz.es/profesionales/contratistas/unique-builder-s-y-development-inc-pfvwus-pf~2080457525;;;
Wamhoff Design | Build;www.wamhoffdesignbuild.com;23560 Coons Road;Tomball;Texas;+1 281-251-9995;Empresas de reformas;https://www.houzz.es/profesionales/empresas-de-reformas/wamhoff-design-build-pfvwus-pf~687911655;;;
TIPLER Group;www.tipler.com;30643 FM 2978, Building A;The Woodlands;Texas;+1 281-667-0764;Arquitectos;https://www.houzz.es/profesionales/arquitectos-y-disenadores-de-edificios/tipler-group-pfvwus-pf~403729419;;;
Vick Construction & Remodeling;www.vick-construction.com/;104 Industrial Blvd, Suite X;Sugar Land;Texas;+1 713-384-3966;Empresas de instalación y reformas de cocinas y baños;https://www.houzz.es/profesionales/renovacion-de-cocinas-y-banos/vick-construction-y-remodeling-pfvwus-pf~1040254000;;;
USA Cabinet Store - Houston;www.usacabinetstore.com/houston/;3471 Kirby Dr;Houston;Texas;+1 832-241-8894;Carpinteros;https://www.houzz.es/profesionales/armarios-de-cocina-y-bano-a-medida/usa-cabinet-store-houston-pfvwus-pf~1007990841;;;
Milestone Countertops;milestonetops.com;5416 Milwee Street;Houston;Texas;+1 818-568-8890;Empresas de azulejos y encimeras;https://www.houzz.es/profesionales/encimeras/milestone-countertops-pfvwus-pf~310409490;;;
Unique Bathroom and Kitchen Showroom;www.uniqueshowroom.com;22672 Ford Road;Porter;Texas;+1 281-577-9009;Empresas de instalación y reformas de cocinas y baños;https://www.houzz.es/profesionales/disenadores-e-instaladores-de-cocinas-y-banos/unique-bathroom-and-kitchen-showroom-pfvwus-pf~25310051;;;
Greymark Construction Company;www.greymarkconstruction.com;1207 Bingham St;Houston;Texas;+1 713-722-7226;Empresas de reformas;https://www.houzz.es/profesionales/empresas-de-reformas/greymark-construction-company-pfvwus-pf~2080389893;;;
The Design Firm;www.thedesignfirm.com;13013 SW Freeway;Sugar Land;Texas;+1 281-595-9580;Interioristas y decoradores;https://www.houzz.es/profesionales/decoradores/the-design-firm-pfvwus-pf~310440142;;;
Care-kter Quality Renovations LLC;contractorhoustontx.com;17815 Pecan Bayou Ln;Cypress;Texas;+1 832-641-1728;Contratistas;https://www.houzz.es/profesionales/contratistas/care-kter-quality-renovations-llc-pfvwus-pf~255837552;;;
Pamela Hope Designs;www.PamelaHopeDesigns.com;6218 Memorial Drive;Houston;Texas;+1 713-880-1934;Interioristas y decoradores;https://www.houzz.es/profesionales/decoradores/pamela-hope-designs-pfvwus-pf~1862316584;;;
OZ Interiors by Jorge Cantu;ozinteriors.net;2008 W. McKinney St.;Houston;Texas;+1 713-835-2637;Interioristas y decoradores;https://www.houzz.es/profesionales/decoradores/oz-interiors-by-jorge-cantu-pfvwus-pf~2048626174;;;
Premier Kitchen & Bath;premierkitchens.us/;1918 Baker Road;Houston;Texas;+1 386-846-8522;Empresas de instalación y reformas de cocinas y baños;https://www.houzz.es/profesionales/renovacion-de-cocinas-y-banos/premier-kitchen-y-bath-pfvwus-pf~1829338305;;;
Morning Star Builders LTD;www.HomesByMorningStar.com;12777 Jones Road #112;Houston;Texas;+1 832-905-1350;Albañiles;https://www.houzz.es/profesionales/albaniles/morning-star-builders-ltd-pfvwus-pf~25166823;;;
Matt Powers Custom Homes & Renovations;www.MattPowersCustomHomes.com;8505 Technology Forest Pl, Suite 102;The Woodlands;Texas;+1 713-597-7881;Empresas de reformas;https://www.houzz.es/profesionales/empresas-de-reformas/matt-powers-custom-homes-y-renovations-pfvwus-pf~562050099;;;
Bentwood of Houston;www.bentwoodofhouston.com;2800 Sage Road, Suite A500;Houston;Texas;+1 713-952-4357;Empresas de instalación y reformas de cocinas y baños;https://www.houzz.es/profesionales/disenadores-e-instaladores-de-cocinas-y-banos/bentwood-of-houston-pfvwus-pf~1199828992;;;
Morales Brothers Construction Services, Inc.;moralesbrothers.net;1116 Radio Ln. Suite 204;Rosenberg;Texas;+1 281-232-0622;Empresas de cocina y baño;https://www.houzz.es/profesionales/productos-de-cocina-y-bano/morales-brothers-construction-services-inc-pfvwus-pf~184906446;;;
Carnley Construction;carnleyconstruction.com;16006 Challenger Dr.;Crosby;Texas;+1 832-219-7265;Contratistas;https://www.houzz.es/profesionales/contratistas/carnley-construction-pfvwus-pf~1761787243;;;
NEST Design Group;nestinteriordesigngroup.com/;2625 Persa Street;Houston;Texas;+1 832-463-2740;Interioristas y decoradores;https://www.houzz.es/profesionales/decoradores/nest-design-group-pfvwus-pf~1862320776;;;
Kitchen and Home design;www.khdhouston.com/;9000 Clay RD Suite 100;HOUSTON;Texas;+1 281-916-6198;Empresas de instalación y reformas de cocinas y baños;https://www.houzz.es/profesionales/renovacion-de-cocinas-y-banos/kitchen-and-home-design-pfvwus-pf~598694966;;;
Escalada USA;escaladausa.com;4108 Dawn St.;Houston;Texas;+1 786-380-6438;Empresas de instalación y reformas de cocinas y baños;https://www.houzz.es/profesionales/disenadores-e-instaladores-de-cocinas-y-banos/escalada-usa-pfvwus-pf~814257031;;;
Craftsmanship By John;www.craftsmanshipbyjohn.com;1418 Cedar Post Lane;Houston;Texas;+1 713-984-8834;Empresas de reformas;https://www.houzz.es/profesionales/empresas-de-reformas/craftsmanship-by-john-pfvwus-pf~185068194;;;
The Deck & Patio Company;tdapc.com/;17750 Southridge Drive;Porter;Texas;+1 832-979-8139;Empresas de patios, cubiertas y cercados;https://www.houzz.es/profesionales/patios-cubiertas-y-cercados/the-deck-y-patio-company-pfvwus-pf~1581749516;;;
CM Designs Group;www.cmdesignsgroup.com;10910 Katy FWY Ste B;Houston;Texas;+1 281-819-5332;Empresas de instalación y reformas de cocinas y baños;https://www.houzz.es/profesionales/renovacion-de-cocinas-y-banos/cm-designs-group-pfvwus-pf~151506455;;;
Big City Construction Co;www.bigcitycabinets.com;3612 Mangum Road;Suite 210;Houston;+1 281-702-8186;Carpinteros;https://www.houzz.es/profesionales/armarios-de-cocina-y-bano-a-medida/big-city-construction-co-pfvwus-pf~974428998;;;
Interior Design Concepts;interiordesignconceptsgroup.com;11209 N. Millbend Dr.;Spring;Texas;+1 713-714-3884;Interioristas y decoradores;https://www.houzz.es/profesionales/decoradores/interior-design-concepts-pfvwus-pf~151220499;;;
Designs Anew Houston LLC;designsanewhouston.com;NA;Houston;Texas;+1 281-572-5649;Empresas de instalación y reformas de cocinas y baños;https://www.houzz.es/profesionales/disenadores-e-instaladores-de-cocinas-y-banos/designs-anew-houston-llc-pfvwus-pf~377575412;;;
Kitchen & Bath Decor & More;kitchenandbathdecorhouston.com;1707 Durham Dr.;Houston;Texas;+1 832-536-5819;Empresas de instalación y reformas de cocinas y baños;https://www.houzz.es/profesionales/disenadores-e-instaladores-de-cocinas-y-banos/kitchen-y-bath-decor-y-more-pfvwus-pf~722548474;;;
iFloors Kitchen & Bath;ifloorstx.com;3532 Hwy 6;Sugarland;Texas;+1 832-583-3533;Empresas de instalación y reformas de cocinas y baños;https://www.houzz.es/profesionales/renovacion-de-cocinas-y-banos/ifloors-kitchen-y-bath-pfvwus-pf~473983401;;;
NG Platinum Homes;www.ngplatinumhomes.com;110 Cypress Station Dr Ste. 123;Houston;Texas;+1 281-628-2463;Empresas de instalación y reformas de cocinas y baños;https://www.houzz.es/profesionales/renovacion-de-cocinas-y-banos/ng-platinum-homes-pfvwus-pf~381746796;;;
Century Builders;Centurybuilderstx.com;1210 Lamar Dr.;Richmond;Texas;+1 281-709-2915;Contratistas;https://www.houzz.es/profesionales/contratistas/century-builders-pfvwus-pf~58885118;;;
Eklektik Interiors;www.eklektikinteriors.com;1300 Shepherd Dr.;Houston;Texas;+1 832-804-6300;Interioristas y decoradores;https://www.houzz.es/profesionales/decoradores/eklektik-interiors-pfvwus-pf~562059859;;;
Hestia Construction & Design;hestiahomeservices.com;16000 Barkers Point Ln;Suite 202;Texas;+1 832-990-8776;Empresas de instalación y reformas de cocinas y baños;https://www.houzz.es/profesionales/renovacion-de-cocinas-y-banos/hestia-construction-y-design-pfvwus-pf~1294860241;;;
Interior Connection;www.interiorconnection.net;sugar land Texas;Sugar Land;Texas;+1 713-677-3203;Interioristas y decoradores;https://www.houzz.es/profesionales/decoradores/interior-connection-pfvwus-pf~1166854933;;;
Incredible Homes & Renovations;incrediblehomes.net;4265 San Felipe St., Suite 1100;Houston;Texas;+1 713-322-9895;Empresas de reformas;https://www.houzz.es/profesionales/empresas-de-reformas/incredible-homes-y-renovations-pfvwus-pf~377856564;;;
Cast Fireplaces, Inc.;www.castfireplaces.com;10425 Tanner Rd;Houston;Texas;+1 713-937-1080;Empresas de azulejos y encimeras;https://www.houzz.es/profesionales/azulejos/cast-fireplaces-inc-pfvwus-pf~689770347;;;
Flo Mangan;;5851 Horseshoe Falls;Missouri City;Texas;+1 832-643-2165;Interioristas y decoradores;https://www.houzz.es/profesionales/decoradores/flo-mangan-pfvwus-pf~940342259;;;
Factory Builder Stores;factorybuilderstores.com;8700 Fallbrook;Austin;Texas;+1 281-477-6464;Empresas de electrodomésticos;https://www.houzz.es/profesionales/electrodomesticos/factory-builder-stores-pfvwus-pf~1476874115;;;
Ashwood Designs and Custom Homes;www.ashwooddesigns.com;2434 Robinhood St;Houston;Texas;+1 346-456-5327;Empresas de instalación y reformas de cocinas y baños;https://www.houzz.es/profesionales/renovacion-de-cocinas-y-banos/ashwood-designs-and-custom-homes-pfvwus-pf~469832721;;;
HGI Remodeling - Custom Remodeling Done Right;www.hgiremodeling.com;20212 Champion Forest Dr, Ste 700-154;Spring;Texas;+1 832-471-8610;Empresas de instalación y reformas de cocinas y baños;https://www.houzz.es/profesionales/renovacion-de-cocinas-y-banos/hgi-remodeling-custom-remodeling-done-right-pfvwus-pf~344909749;;;
Adams Architects, Inc.;adamsarchitectshouston.com/;717 Rochow Street;Houston;Texas;+1 713-575-2467;Arquitectos;https://www.houzz.es/profesionales/arquitectos-y-disenadores-de-edificios/adams-architects-inc-pfvwus-pf~564445959;;;
Collaborative Design Group-Architects & Interiors;www.cdg-ai.com;2501 Central Park Way Suite A1;Houston;Texas;+1 713-263-8311;Arquitectos;https://www.houzz.es/profesionales/arquitectos-y-disenadores-de-edificios/collaborative-design-group-architects-y-interiors-pfvwus-pf~1132657478;;;
Monarch & Maker;monarchandmaker.com;2610 Technology Forest Blvd;The Woodlands;Texas;+1 281-819-5303;Interioristas y decoradores;https://www.houzz.es/profesionales/decoradores/monarch-y-maker-pfvwus-pf~1510064950;;;
The Residence Doctor;www.residencedoctor.com;9337 Spring Cypress Road;Spring;Texas;+1 281-257-2422;Empresas de instalación y reformas de cocinas y baños;https://www.houzz.es/profesionales/renovacion-de-cocinas-y-banos/the-residence-doctor-pfvwus-pf~59644550;;;
Sweetlake Interior Design LLC;www.sweetlakeinteriordesign.com;1935 Springwell Drive;Houston;Texas;+1 713-322-3860;Interioristas y decoradores;https://www.houzz.es/profesionales/decoradores/sweetlake-interior-design-llc-pfvwus-pf~184562818;;;
Blackwell Design, LLC;blackwelldesignllc.net;19 Briar Hollow Ln Ste. 246;Houston;Texas;+1 713-545-0969;Contratistas;https://www.houzz.es/profesionales/contratistas/blackwell-design-llc-pfvwus-pf~1638837231;;;
Xtreme Renovations, LLC;www.xtreme-renovations.com;9310 Point Park Drive;Houston;Texas;+1 281-345-4233;Empresas de instalación y reformas de cocinas y baños;https://www.houzz.es/profesionales/renovacion-de-cocinas-y-banos/xtreme-renovations-llc-pfvwus-pf~1418717577;;;
Framestead Enterprises, L.P.;www.framestead.com;3818 Acorn Lane;Porter;Texas;+1 281-843-8447;Empresas de reformas;https://www.houzz.es/profesionales/empresas-de-reformas/framestead-enterprises-l-p-pfvwus-pf~690958719;;;
Sophia Designs;www.sophiadesigns.com;3100 Wilcrest Drive, Suite 220;Houston;Texas;+1 281-685-1429;Interioristas y decoradores;https://www.houzz.es/profesionales/decoradores/sophia-designs-pfvwus-pf~788782132;;;
McVaugh Custom Homes;www.mcvaugh.com;11200 Richmond Ave;Ste 100;Houston;+1 281-729-9530;Empresas de reformas;https://www.houzz.es/profesionales/empresas-de-reformas/mcvaugh-custom-homes-pfvwus-pf~1703258605;;;
SCM Design Group;www.scm-design.com;1790 Hughes Landing Blvd. Suite 400;The Woodlands;Texas;+1 281-783-3150;Interioristas y decoradores;https://www.houzz.es/profesionales/decoradores/scm-design-group-pfvwus-pf~1418575685;;;
Matt Powers Custom Homes & Renovations;www.MattPowersCustomHomes.com;8505 Technology Forest Pl, Suite 102;The Woodlands;Texas;+1 713-597-7881;Empresas de reformas;https://www.houzz.es/profesionales/empresas-de-reformas/matt-powers-custom-homes-y-renovations-pfvwus-pf~562050099;;;
NG Platinum Homes;www.ngplatinumhomes.com;110 Cypress Station Dr Ste. 123;Houston;Texas;+1 281-628-2463;Empresas de instalación y reformas de cocinas y baños;https://www.houzz.es/profesionales/renovacion-de-cocinas-y-banos/ng-platinum-homes-pfvwus-pf~381746796;;;
BwCollier Interior Design, BwC Studio;www.bwcollier.net;5252 Westchester, Suite 220;Houston;Texas;+1 713-348-9735;Interioristas y decoradores;https://www.houzz.es/profesionales/decoradores/bwcollier-interior-design-bwc-studio-pfvwus-pf~880992717;;;
BPC Development LLC;bpcdevelopmentllc.com;5090 Richmond Ave Ste 459;Houston;Texas;+1 281-626-8467;Contratistas;https://www.houzz.es/profesionales/contratistas/bpc-development-llc-pfvwus-pf~1581432816;;;
Stones & Designers;www.stonesanddesigners.com;26937 Fm 2978 Rd;Magnolia;Texas;+1 832-880-3191;Empresas de azulejos y encimeras;https://www.houzz.es/profesionales/encimeras/stones-y-designers-pfvwus-pf~789153376;;;
Hestia Construction & Design;hestiahomeservices.com;16000 Barkers Point Ln;Suite 202;Texas;+1 832-990-8776;Empresas de instalación y reformas de cocinas y baños;https://www.houzz.es/profesionales/renovacion-de-cocinas-y-banos/hestia-construction-y-design-pfvwus-pf~1294860241;;;
Houston Remodeling Contractors;;7211 Regency Square;Houston;Texas;+1 832-612-3568;Contratistas;https://www.houzz.es/profesionales/contratistas/houston-remodeling-contractors-pfvwus-pf~315217894;;;
Fiesta Construction;www.FiestaConstruction.com;2111 Foundary Dr;Katy;Texas;+1 832-934-8743;Contratistas;https://www.houzz.es/profesionales/contratistas/fiesta-construction-pfvwus-pf~155660891;;;
Blum Custom Builders & Remodeling;blumcustombuilders.com;5210 Spruce Street;Bellaire;Texas;+1 346-292-5814;Albañiles;https://www.houzz.es/profesionales/albaniles/blum-custom-builders-y-remodeling-pfvwus-pf~1669396442;;;
Kitchen and Home design;www.khdhouston.com/;9000 Clay RD Suite 100;HOUSTON;Texas;+1 281-916-6198;Empresas de instalación y reformas de cocinas y baños;https://www.houzz.es/profesionales/renovacion-de-cocinas-y-banos/kitchen-and-home-design-pfvwus-pf~598694966;;;
Jonathon Dahl;www.jonathondahl.com;PO Box 918;Cypress;Texas;+1 281-688-5063;Carpinteros;https://www.houzz.es/profesionales/armarios-de-cocina-y-bano-a-medida/jonathon-dahl-pfvwus-pf~1988221048;;;
Ideo Architects;ideoarchitects.com/;19103 I-45;Spring;Texas;+1 832-981-5904;Arquitectos;https://www.houzz.es/profesionales/arquitectos-y-disenadores-de-edificios/ideo-architects-pfvwus-pf~1703333257;;;
ONarq Studio;www.onarqstudio.com;1322 FM 1463;katy;Texas;+1 786-207-1436;Empresas de reformas;https://www.houzz.es/profesionales/empresas-de-reformas/onarq-studio-pfvwus-pf~155683623;;;
Interior You;interioryou.com;4410 Westhemier Rd;Houston;Texas;+1 832-857-0360;Interioristas y decoradores;https://www.houzz.es/profesionales/decoradores/interior-you-pfvwus-pf~1544510669;;;
John P. Guy, Designer;newcottagehomes2014.houzzsite.com;2406 Fallen Branch Drive;Katy;Texas;+1 832-293-4744;Arquitectos técnicos y aparejadores;https://www.houzz.es/profesionales/arquitectos-tecnicos-y-aparejadores/john-p-guy-designer-pfvwus-pf~1326077176;;;
Unique Builder's & Development Inc.;www.uniquebuilderstexas.com;5320 Gulfton, Suite 9;Houston;Texas;+1 346-616-9168;Contratistas;https://www.houzz.es/profesionales/contratistas/unique-builder-s-y-development-inc-pfvwus-pf~2080457525;;;
Mr. Handy Plus Services;mrhandyplusservices.com;11010 Katy fwy;Houston;Texas;+1 832-864-7992;Contratistas;https://www.houzz.es/profesionales/contratistas/mr-handy-plus-services-pfvwus-pf~1891285119;;;
Brickmoon Design;www.brickmoondesign.com;1438 Campbell Rd. Suite 202;Houston;Texas;+1 713-257-9843;Arquitectos;https://www.houzz.es/profesionales/arquitectos-y-disenadores-de-edificios/brickmoon-design-pfvwus-pf~1543508185;;;
Casa Bella Design Build;www.casabelladesignbuild.com;6700 Woodlands Parkway, Ste. 230/237;The Woodlands;Texas;+1 832-742-4557;Empresas de instalación y reformas de cocinas y baños;https://www.houzz.es/profesionales/renovacion-de-cocinas-y-banos/casa-bella-design-build-pfvwus-pf~503569816;;;
Homes Reimagined USA;homesreimaginedusa.com/;2500 E T C Jester Blvd;Houston;Texas;+1 832-539-7387;Contratistas;https://www.houzz.es/profesionales/contratistas/homes-reimagined-usa-pfvwus-pf~1354667287;;;
Smart Remodeling LLC;www.smartremodelingllc.com/;12711 Fuqua St.;Suite 106;Houston;+1 832-981-3140;Empresas de instalación y reformas de cocinas y baños;https://www.houzz.es/profesionales/renovacion-de-cocinas-y-banos/smart-remodeling-llc-pfvwus-pf~1511741026;;;
Lone Star Pro Services;www.lonestarproservices.com/;13700 Veterans Memorial Dr.;Ste 251;Houston;+1 713-547-5270;Contratistas;https://www.houzz.es/profesionales/contratistas/lone-star-pro-services-pfvwus-pf~849592342;;;
Casa Castillo;www.casacastillo.com;10685B Hazelhurst dr #6049;Houston;Texas;+1 800-991-9893;Empresas de azulejos y encimeras;https://www.houzz.es/profesionales/azulejos/casa-castillo-pfvwus-pf~1326139636;;;
YZM CONSTRUCTION;www.yzmconstruction.com;10777 Westheimer Rd;Suite1100;Houston;+1 346-833-9825;Empresas de reformas;https://www.houzz.es/profesionales/empresas-de-reformas/yzm-construction-pfvwus-pf~1547809265;;;
Jim Farris Cabinets;www.farriscabinets.com;2950 Shaver, #E-10;Pasadena;Texas;+1 281-886-7276;Carpinteros;https://www.houzz.es/profesionales/armarios-de-cocina-y-bano-a-medida/jim-farris-cabinets-pfvwus-pf~184840842;;;
Studio L Interior Design;www.studiolinteriordesign.com;2139 Winrock;Houston;Texas;+1 281-414-2806;Interioristas y decoradores;https://www.houzz.es/profesionales/decoradores/studio-l-interior-design-pfvwus-pf~2013462207;;;
